     2.10           G: GLONASS NAV DATA                     RINEX VERSION / TYPE
teqc  2015Jun23                         20210407 03:35:04UTCPGM / RUN BY / DATE
Linux 2.4.21-27.ELsmp|Opteron|gcc -static|Linux x86_64|=+   COMMENT
  2021     3    16   -8.381903171539D-09                    CORR TO SYSTEM TIME
                                                            END OF HEADER
16 21  3 17 18 15  0.0-1.263339072466D-05-0.000000000000D+00 6.480000000000D+04
   -6.265008789062D+03-2.857622146606D+00-1.862645149231D-09 0.000000000000D+00
    1.217644042969D+04 6.983633041382D-01 2.793967723846D-09-1.000000000000D+00
   -2.151899414062D+04 1.240879058838D+00 9.313225746155D-10 0.000000000000D+00
18 21  3 17 18 15  0.0 7.011089473963D-05 9.094947017729D-13 6.480000000000D+04
   -1.280909667969D+04 8.680868148804D-01-9.313225746155D-10 0.000000000000D+00
    1.577329199219D+04-1.941568374634D+00 2.793967723846D-09-3.000000000000D+00
   -1.544364648438D+04-2.694506645203D+00 0.000000000000D+00 0.000000000000D+00
19 21  3 17 18 15  0.0-1.360895112157D-04-9.094947017729D-13 6.480000000000D+04
   -9.088070312500D+03 2.567367553711D-01-1.862645149231D-09 0.000000000000D+00
    2.383426416016D+04 4.552364349365D-02 2.793967723846D-09 3.000000000000D+00
   -3.428745117188D+02-3.612396240234D+00-9.313225746155D-10 0.000000000000D+00
20 21  3 17 18 15  0.0-4.544202238321D-05-0.000000000000D+00 6.480000000000D+04
    1.548351074219D+03-6.984481811523D-01-9.313225746155D-10 0.000000000000D+00
    1.826969531250D+04 2.337071418762D+00 9.313225746155D-10 2.000000000000D+00
    1.776865673828D+04-2.338775634766D+00-1.862645149231D-09 0.000000000000D+00
 6 21  3 17 18 45  0.0 1.945830881596D-04 0.000000000000D+00 6.660000000000D+04
    1.593383544922D+04-7.502746582031D-01-1.862645149231D-09 0.000000000000D+00
    1.827538769531D+04-8.014211654663D-01 9.313225746155D-10-4.000000000000D+00
    7.956000976562D+03 3.338605880737D+00-9.313225746155D-10 0.000000000000D+00
19 21  3 17 18 45  0.0-1.360923051834D-04-9.094947017729D-13 6.660000000000D+04
   -8.415536132812D+03 4.475698471069D-01-9.313225746155D-10 0.000000000000D+00
    2.311680371094D+04-8.470544815063D-01 3.725290298462D-09 3.000000000000D+00
   -6.747929687500D+03-3.458120346069D+00-0.000000000000D+00 0.000000000000D+00
 5 21  3 17 18 45  0.0 6.832741200924D-05 9.094947017729D-13 6.660000000000D+04
   -3.245976562500D+02-2.195545196533D+00-0.000000000000D+00 0.000000000000D+00
    1.330583105469D+04-2.014032363892D+00 9.313225746155D-10 1.000000000000D+00
    2.177853759766D+04 1.196418762207D+00-2.793967723846D-09 0.000000000000D+00
15 21  3 17 18 45  0.0 1.048678532243D-04-0.000000000000D+00 6.660000000000D+04
   -2.362171826172D+04-2.553701400757D-01 0.000000000000D+00 0.000000000000D+00
    9.327395019531D+03 2.510604858398D-01 2.793967723846D-09 0.000000000000D+00
   -2.346010742188D+03 3.548410415649D+00-9.313225746155D-10 0.000000000000D+00
16 21  3 17 18 45  0.0-1.263432204723D-05-0.000000000000D+00 6.660000000000D+04
   -1.098019921875D+04-2.343667984009D+00-9.313225746155D-10 0.000000000000D+00
    1.368937158203D+04 9.513616561890D-01 2.793967723846D-09-1.000000000000D+00
   -1.848169531250D+04 2.112319946289D+00 9.313225746155D-10 0.000000000000D+00
18 21  3 17 18 45  0.0 7.011368870735D-05 9.094947017729D-13 6.660000000000D+04
   -1.138965185547D+04 6.717414855957D-01-9.313225746155D-10 0.000000000000D+00
    1.164597070312D+04-2.612662315369D+00 2.793967723846D-09-3.000000000000D+00
   -1.963490478516D+04-1.932110786438D+00 9.313225746155D-10 0.000000000000D+00
20 21  3 17 18 45  0.0-4.544295370579D-05-0.000000000000D+00 6.660000000000D+04
    7.675029296875D+02-1.895418167114D-01-9.313225746155D-10 0.000000000000D+00
    2.200769970703D+04 1.773037910461D+00 1.862645149231D-09 2.000000000000D+00
    1.292822167969D+04-3.004638671875D+00-1.862645149231D-09 0.000000000000D+00
 6 21  3 17 19 15  0.0 1.945849508047D-04 0.000000000000D+00 6.840000000000D+04
    1.390110058594D+04-1.509666442871D+00-9.313225746155D-10 0.000000000000D+00
    1.653302539062D+04-1.091458320618D+00 9.313225746155D-10-4.000000000000D+00
    1.358063916016D+04 2.870426177979D+00-1.862645149231D-09 0.000000000000D+00
19 21  3 17 19 15  0.0-1.360950991511D-04-9.094947017729D-13 6.840000000000D+04
   -7.632673828125D+03 3.802375793457D-01-9.313225746155D-10 0.000000000000D+00
    2.080593994141D+04-1.704630851746D+00 3.725290298462D-09 3.000000000000D+00
   -1.263126318359D+04-3.036467552185D+00 0.000000000000D+00 0.000000000000D+00
15 21  3 17 19 15  0.0 1.048678532243D-04-0.000000000000D+00 6.840000000000D+04
   -2.332946777344D+04 5.625247955322D-01 0.000000000000D+00 0.000000000000D+00
    9.487322265625D+03-1.101331710815D-01 1.862645149231D-09 0.000000000000D+00
    4.049308593750D+03 3.511343002319D+00-9.313225746155D-10 0.000000000000D+00
16 21  3 17 19 15  0.0-1.263618469238D-05-9.094947017729D-13 6.840000000000D+04
   -1.459274853516D+04-1.648160934448D+00-0.000000000000D+00 0.000000000000D+00
    1.546920117188D+04 9.854021072388D-01 2.793967723846D-09-1.000000000000D+00
   -1.401198144531D+04 2.821935653687D+00 0.000000000000D+00 0.000000000000D+00
18 21  3 17 19 15  0.0 7.011555135250D-05 9.094947017729D-13 6.840000000000D+04
   -1.050336376953D+04 2.889509201050D-01-0.000000000000D+00 0.000000000000D+00
    6.508922363281D+03-3.049566268921D+00 1.862645149231D-09-3.000000000000D+00
   -2.230890332031D+04-1.019541740417D+00 9.313225746155D-10 0.000000000000D+00
20 21  3 17 19 15  0.0-4.544388502836D-05-0.000000000000D+00 6.840000000000D+04
    7.654941406250D+02 1.529388427734D-01-9.313225746155D-10 0.000000000000D+00
    2.452033740234D+04 9.896888732910D-01 2.793967723846D-09 2.000000000000D+00
    7.091317871094D+03-3.438829421997D+00-9.313225746155D-10 0.000000000000D+00
 5 21  3 17 19 15  0.0 6.832834333181D-05 9.094947017729D-13 6.855000000000D+04
   -4.685573242188D+03-2.614629745483D+00 0.000000000000D+00 0.000000000000D+00
    9.870116699219D+03-1.765789985657D+00 9.313225746155D-10 1.000000000000D+00
    2.306399804688D+04 2.225704193115D-01-2.793967723846D-09 0.000000000000D+00
 9 21  3 17 19 15  0.0-1.662969589233D-05 1.818989403546D-12 6.861000000000D+04
    1.244170898438D+03-2.738361358643D+00-9.313225746155D-10 0.000000000000D+00
    1.184315966797D+04 1.427952766418D+00 2.793967723846D-09-2.000000000000D+00
   -2.255193261719D+04 5.922241210938D-01 9.313225746155D-10 0.000000000000D+00
21 21  3 17 19 15  0.0-1.950934529305D-04-2.728484105319D-12 6.996000000000D+04
    8.872183593750D+03-1.095428466797D-01-0.000000000000D+00 0.000000000000D+00
    1.080075732422D+04 2.924849510193D+00 0.000000000000D+00 4.000000000000D+00
    2.133538378906D+04-1.436862945557D+00-1.862645149231D-09 0.000000000000D+00
 6 21  3 17 19 45  0.0 1.945858821273D-04 0.000000000000D+00 7.020000000000D+04
    1.052850439453D+04-2.220069885254D+00-0.000000000000D+00 0.000000000000D+00
    1.450301171875D+04-1.121565818787D+00 9.313225746155D-10-4.000000000000D+00
    1.815602392578D+04 2.180307388306D+00-1.862645149231D-09 0.000000000000D+00
19 21  3 17 19 45  0.0-1.360978931189D-04-9.094947017729D-13 7.020000000000D+04
   -7.185224121094D+03 8.341884613037D-02-0.000000000000D+00 0.000000000000D+00
    1.707142675781D+04-2.410810470581D+00 2.793967723846D-09 3.000000000000D+00
   -1.753797949219D+04-2.380036354065D+00 0.000000000000D+00 0.000000000000D+00
 9 21  3 17 19 45  0.0-1.662597060204D-05 1.818989403546D-12 7.020000000000D+04
   -3.315684570312D+03-2.292847633362D+00-0.000000000000D+00 0.000000000000D+00
    1.464365380859D+04 1.648528099060D+00 2.793967723846D-09-2.000000000000D+00
   -2.062785546875D+04 1.531575202942D+00 9.313225746155D-10 0.000000000000D+00
15 21  3 17 19 45  0.0 1.048669219017D-04-0.000000000000D+00 7.020000000000D+04
   -2.169008251953D+04 1.225589752197D+00 9.313225746155D-10 0.000000000000D+00
    8.816994628906D+03-6.599798202515D-01 9.313225746155D-10 0.000000000000D+00
    1.013152685547D+04 3.202821731567D+00-1.862645149231D-09 0.000000000000D+00
16 21  3 17 19 45  0.0-1.263804733753D-05-9.094947017729D-13 7.020000000000D+04
   -1.686711572266D+04-8.755245208740D-01 0.000000000000D+00 0.000000000000D+00
    1.708269775391D+04 7.640914916992D-01 2.793967723846D-09-1.000000000000D+00
   -8.453833496094D+03 3.313605308533D+00-0.000000000000D+00 0.000000000000D+00
20 21  3 17 19 45  0.0-4.544481635094D-05-0.000000000000D+00 7.020000000000D+04
    1.178098632812D+03 2.635641098022D-01-0.000000000000D+00 0.000000000000D+00
    2.549840576172D+04 8.668899536133D-02 3.725290298462D-09 2.000000000000D+00
    7.078632812500D+02-3.607990264893D+00-9.313225746155D-10 0.000000000000D+00
21 21  3 17 19 45  0.0-1.950990408659D-04-2.728484105319D-12 7.020000000000D+04
    9.065117675781D+03 3.018999099731D-01-0.000000000000D+00 0.000000000000D+00
    1.567783203125D+04 2.448602676392D+00 1.862645149231D-09 4.000000000000D+00
    1.795749853516D+04-2.292021751404D+00-1.862645149231D-09 0.000000000000D+00
20 21  3 17 20 15  0.0-4.544574767351D-05-0.000000000000D+00 7.200000000000D+04
    1.560674804688D+03 1.196899414062D-01 0.000000000000D+00 0.000000000000D+00
    2.483173339844D+04-8.174562454224D-01 3.725290298462D-09 2.000000000000D+00
   -5.730137695312D+03-3.499019622803D+00-0.000000000000D+00 0.000000000000D+00
16 21  3 17 20 15  0.0-1.264084130526D-05-9.094947017729D-13 7.200000000000D+04
   -1.776663525391D+04-1.392250061035D-01 9.313225746155D-10 0.000000000000D+00
    1.807073632812D+04 2.956256866455D-01 2.793967723846D-09-1.000000000000D+00
   -2.237791015625D+03 3.547974586487D+00-9.313225746155D-10 0.000000000000D+00
 9 21  3 17 20 15  0.0-1.662224531174D-05 1.818989403546D-12 7.200000000000D+04
   -6.910354003906D+03-1.681890487671D+00 0.000000000000D+00 0.000000000000D+00
    1.763391210938D+04 1.630514144897D+00 2.793967723846D-09-2.000000000000D+00
   -1.711005078125D+04 2.351599693298D+00 0.000000000000D+00 0.000000000000D+00
